STARLINK-5530           
1 56494U 23064AY  26068.49261477  .00024455  00000+0  20352-2 0  9998
2 56494  69.9976 104.9316 0002970  70.8950 289.2531 14.98614426156194
SATELIOT_1              
1 60550U 24149CL  26068.75576468  .00003421  00000+0  29754-3 0  9995
2 60550  97.6798 146.3176 0007749  58.9869 301.2113 14.97604186 85183
