[{"OBJECT_NAME":"STARLINK-5530","OBJECT_ID":"2023-064AY","EPOCH":"2026-03-09T11:49:21.916128","MEAN_MOTION":14.98614426,"ECCENTRICITY":0.00029708,"INCLINATION":69.9976,"RA_OF_ASC_NODE":104.9316,"ARG_OF_PERICENTER":70.895,"MEAN_ANOMALY":289.2531,"EPHEMERIS_TYPE":0,"CLASSIFICATION_TYPE":"U","NORAD_CAT_ID":56494,"ELEMENT_SET_NO":999,"REV_AT_EPOCH":15619,"BSTAR":0.0020351993,"MEAN_MOTION_DOT":0.00024455,"MEAN_MOTION_DDOT":0},{"OBJECT_NAME":"SATELIOT_1","OBJECT_ID":"2024-149CL","EPOCH":"2026-03-09T18:08:18.068352","MEAN_MOTION":14.97604186,"ECCENTRICITY":0.00077489,"INCLINATION":97.6798,"RA_OF_ASC_NODE":146.3176,"ARG_OF_PERICENTER":58.9869,"MEAN_ANOMALY":301.2113,"EPHEMERIS_TYPE":0,"CLASSIFICATION_TYPE":"U","NORAD_CAT_ID":60550,"ELEMENT_SET_NO":999,"REV_AT_EPOCH":8518,"BSTAR":0.00029754021,"MEAN_MOTION_DOT":3.421e-5,"MEAN_MOTION_DDOT":0}]
